[{"OBJECT_NAME":"STARLINK-1848","OBJECT_ID":"2020-074B","EPOCH":"2026-03-04T02:32:56.848992","MEAN_MOTION":16.41157069,"ECCENTRICITY":0.0006491,"INCLINATION":53.0202,"RA_OF_ASC_NODE":279.1593,"ARG_OF_PERICENTER":257.3061,"MEAN_ANOMALY":102.726,"EPHEMERIS_TYPE":0,"CLASSIFICATION_TYPE":"U","NORAD_CAT_ID":46740,"ELEMENT_SET_NO":999,"REV_AT_EPOCH":29677,"BSTAR":0.00062757,"MEAN_MOTION_DOT":0.1002856,"MEAN_MOTION_DDOT":1.2371e-5},{"OBJECT_NAME":"STARLINK-1955","OBJECT_ID":"2021-009J","EPOCH":"2026-03-04T04:00:03.000096","MEAN_MOTION":15.92554197,"ECCENTRICITY":0.0003198,"INCLINATION":53.0359,"RA_OF_ASC_NODE":353.3996,"ARG_OF_PERICENTER":122.7971,"MEAN_ANOMALY":59.4208,"EPHEMERIS_TYPE":0,"CLASSIFICATION_TYPE":"U","NORAD_CAT_ID":47556,"ELEMENT_SET_NO":999,"REV_AT_EPOCH":601,"BSTAR":0.0014944,"MEAN_MOTION_DOT":0.00519276,"MEAN_MOTION_DDOT":0.00011714},{"OBJECT_NAME":"WILDTRACKCUBE-SIMBA","OBJECT_ID":"2021-022K","EPOCH":"2026-03-04T00:24:03.408768","MEAN_MOTION":16.18785701,"ECCENTRICITY":0.0005932,"INCLINATION":97.3796,"RA_OF_ASC_NODE":344.8724,"ARG_OF_PERICENTER":133.364,"MEAN_ANOMALY":226.8143,"EPHEMERIS_TYPE":0,"CLASSIFICATION_TYPE":"U","NORAD_CAT_ID":47941,"ELEMENT_SET_NO":999,"REV_AT_EPOCH":27493,"BSTAR":0.0014346,"MEAN_MOTION_DOT":0.02462535,"MEAN_MOTION_DDOT":2.4181e-6},{"OBJECT_NAME":"JILIN-1 GAOFEN 3D02","OBJECT_ID":"2021-061C","EPOCH":"2026-03-04T05:12:17.772768","MEAN_MOTION":16.13805083,"ECCENTRICITY":0.0004924,"INCLINATION":97.2901,"RA_OF_ASC_NODE":143.7833,"ARG_OF_PERICENTER":249.8814,"MEAN_ANOMALY":110.1942,"EPHEMERIS_TYPE":0,"CLASSIFICATION_TYPE":"U","NORAD_CAT_ID":49005,"ELEMENT_SET_NO":999,"REV_AT_EPOCH":25993,"BSTAR":0.0013642,"MEAN_MOTION_DOT":0.01576357,"MEAN_MOTION_DDOT":0.0020082},{"OBJECT_NAME":"STARLINK-3269","OBJECT_ID":"2021-125AQ","EPOCH":"2026-03-04T06:14:19.726656","MEAN_MOTION":16.20159842,"ECCENTRICITY":0.0010127,"INCLINATION":53.1967,"RA_OF_ASC_NODE":158.1708,"ARG_OF_PERICENTER":338.9709,"MEAN_ANOMALY":21.0913,"EPHEMERIS_TYPE":0,"CLASSIFICATION_TYPE":"U","NORAD_CAT_ID":50194,"ELEMENT_SET_NO":999,"REV_AT_EPOCH":23745,"BSTAR":0.0015736,"MEAN_MOTION_DOT":0.03196044,"MEAN_MOTION_DDOT":1.1836e-5},{"OBJECT_NAME":"LYNK TOWER 1","OBJECT_ID":"2022-033F","EPOCH":"2026-03-03T18:48:32.423904","MEAN_MOTION":16.09327893,"ECCENTRICITY":0.00058914,"INCLINATION":97.2539,"RA_OF_ASC_NODE":167.9525,"ARG_OF_PERICENTER":198.5741,"MEAN_ANOMALY":161.5328,"EPHEMERIS_TYPE":0,"CLASSIFICATION_TYPE":"U","NORAD_CAT_ID":52162,"ELEMENT_SET_NO":999,"REV_AT_EPOCH":22029,"BSTAR":0.00078750736,"MEAN_MOTION_DOT":0.00698338,"MEAN_MOTION_DDOT":0.00026184097},{"OBJECT_NAME":"STARLINK-3767","OBJECT_ID":"2022-045AX","EPOCH":"2026-03-04T04:00:03.000096","MEAN_MOTION":15.99268054,"ECCENTRICITY":4.4e-5,"INCLINATION":53.2122,"RA_OF_ASC_NODE":200.5377,"ARG_OF_PERICENTER":107.6596,"MEAN_ANOMALY":112.1911,"EPHEMERIS_TYPE":0,"CLASSIFICATION_TYPE":"U","NORAD_CAT_ID":52376,"ELEMENT_SET_NO":999,"REV_AT_EPOCH":594,"BSTAR":0.0026077,"MEAN_MOTION_DOT":0.01295132,"MEAN_MOTION_DDOT":0.00088735},{"OBJECT_NAME":"NUSAT-28 (ALICE LEE)","OBJECT_ID":"2022-057R","EPOCH":"2026-03-04T04:51:49.695264","MEAN_MOTION":15.96381772,"ECCENTRICITY":0.0007076,"INCLINATION":97.4992,"RA_OF_ASC_NODE":212.4882,"ARG_OF_PERICENTER":288.1628,"MEAN_ANOMALY":71.8878,"EPHEMERIS_TYPE":0,"CLASSIFICATION_TYPE":"U","NORAD_CAT_ID":52747,"ELEMENT_SET_NO":999,"REV_AT_EPOCH":21117,"BSTAR":0.0014142,"MEAN_MOTION_DOT":0.00586401,"MEAN_MOTION_DDOT":0.00014683},{"OBJECT_NAME":"STARLINK-6284","OBJECT_ID":"2023-061AF","EPOCH":"2026-03-03T23:32:44.744352","MEAN_MOTION":16.32520729,"ECCENTRICITY":0.0005264,"INCLINATION":42.9901,"RA_OF_ASC_NODE":172.2404,"ARG_OF_PERICENTER":309.874,"MEAN_ANOMALY":50.1687,"EPHEMERIS_TYPE":0,"CLASSIFICATION_TYPE":"U","NORAD_CAT_ID":56403,"ELEMENT_SET_NO":999,"REV_AT_EPOCH":15654,"BSTAR":0.00073897,"MEAN_MOTION_DOT":0.04547832,"MEAN_MOTION_DDOT":9.2034e-6},{"OBJECT_NAME":"STARLINK-6201","OBJECT_ID":"2023-064AQ","EPOCH":"2026-03-04T04:00:03.000096","MEAN_MOTION":15.95533639,"ECCENTRICITY":0.0003696,"INCLINATION":69.9961,"RA_OF_ASC_NODE":129.4005,"ARG_OF_PERICENTER":274.3933,"MEAN_ANOMALY":103.9079,"EPHEMERIS_TYPE":0,"CLASSIFICATION_TYPE":"U","NORAD_CAT_ID":56486,"ELEMENT_SET_NO":999,"REV_AT_EPOCH":584,"BSTAR":0.0031904,"MEAN_MOTION_DOT":0.01263226,"MEAN_MOTION_DDOT":0.0007858},{"OBJECT_NAME":"SHIYAN-25 (SY-25)","OBJECT_ID":"2023-087A","EPOCH":"2026-03-04T05:12:00.694080","MEAN_MOTION":16.0104386,"ECCENTRICITY":0.0012154,"INCLINATION":96.716,"RA_OF_ASC_NODE":124.3005,"ARG_OF_PERICENTER":244.9075,"MEAN_ANOMALY":115.0945,"EPHEMERIS_TYPE":0,"CLASSIFICATION_TYPE":"U","NORAD_CAT_ID":57047,"ELEMENT_SET_NO":999,"REV_AT_EPOCH":15801,"BSTAR":0.00024048,"MEAN_MOTION_DOT":0.00129849,"MEAN_MOTION_DDOT":8.821e-6},{"OBJECT_NAME":"STARLINK-30210","OBJECT_ID":"2023-096C","EPOCH":"2026-03-03T23:10:22.759680","MEAN_MOTION":16.03089191,"ECCENTRICITY":0.0025114,"INCLINATION":42.9633,"RA_OF_ASC_NODE":171.4859,"ARG_OF_PERICENTER":2.2845,"MEAN_ANOMALY":357.8144,"EPHEMERIS_TYPE":0,"CLASSIFICATION_TYPE":"U","NORAD_CAT_ID":57292,"ELEMENT_SET_NO":999,"REV_AT_EPOCH":14759,"BSTAR":0.0015085,"MEAN_MOTION_DOT":0.00995072,"MEAN_MOTION_DDOT":0.00051098},{"OBJECT_NAME":"STARLINK-30232","OBJECT_ID":"2023-096P","EPOCH":"2026-03-04T05:44:02.093568","MEAN_MOTION":16.0415869,"ECCENTRICITY":0.0023926,"INCLINATION":42.9707,"RA_OF_ASC_NODE":169.3408,"ARG_OF_PERICENTER":5.2845,"MEAN_ANOMALY":354.8283,"EPHEMERIS_TYPE":0,"CLASSIFICATION_TYPE":"U","NORAD_CAT_ID":57303,"ELEMENT_SET_NO":999,"REV_AT_EPOCH":14762,"BSTAR":0.0016051,"MEAN_MOTION_DOT":0.01123479,"MEAN_MOTION_DDOT":0.00068521},{"OBJECT_NAME":"QIANKUN-1","OBJECT_ID":"2023-103B","EPOCH":"2026-03-03T23:30:03.636000","MEAN_MOTION":16.07819064,"ECCENTRICITY":0.0028302,"INCLINATION":96.195,"RA_OF_ASC_NODE":114.8717,"ARG_OF_PERICENTER":171.4148,"MEAN_ANOMALY":188.7628,"EPHEMERIS_TYPE":0,"CLASSIFICATION_TYPE":"U","NORAD_CAT_ID":57422,"ELEMENT_SET_NO":999,"REV_AT_EPOCH":15039,"BSTAR":1.4603e-6,"MEAN_MOTION_DOT":7.17e-6,"MEAN_MOTION_DDOT":1.6831e-6},{"OBJECT_NAME":"OBJECT B","OBJECT_ID":"2023-104B","EPOCH":"2026-03-04T05:07:26.838912","MEAN_MOTION":15.93352274,"ECCENTRICITY":0.0002238,"INCLINATION":97.2682,"RA_OF_ASC_NODE":151.6006,"ARG_OF_PERICENTER":316.3064,"MEAN_ANOMALY":43.8033,"EPHEMERIS_TYPE":0,"CLASSIFICATION_TYPE":"U","NORAD_CAT_ID":57425,"ELEMENT_SET_NO":999,"REV_AT_EPOCH":14720,"BSTAR":0.00099052,"MEAN_MOTION_DOT":0.00348986,"MEAN_MOTION_DDOT":4.8917e-5}]
