STARLINK-1848           
1 46740U 20074B   26063.10621353  .10028560  12371-4  62757-3 0  9992
2 46740  53.0202 279.1593 0006491 257.3061 102.7260 16.41157069296774
STARLINK-1955           
1 47556U 21009J   26063.16670139  .00519276  11714-3  14944-2 0  9990
2 47556  53.0359 353.3996 0003198 122.7971  59.4208 15.92554197  6015
WILDTRACKCUBE-SIMBA     
1 47941U 21022K   26063.01670612  .02462535  24181-5  14346-2 0  9990
2 47941  97.3796 344.8724 0005932 133.3640 226.8143 16.18785701274934
JILIN-1 GAOFEN 3D02     
1 49005U 21061C   26063.21687237  .01576357  20082-2  13642-2 0  9997
2 49005  97.2901 143.7833 0004924 249.8814 110.1942 16.13805083259933
STARLINK-3269           
1 50194U 21125AQ  26063.25995054  .03196044  11836-4  15736-2 0  9990
2 50194  53.1967 158.1708 0010127 338.9709  21.0913 16.20159842237457
LYNK TOWER 1            
1 52162U 22033F   26062.78370861  .00698338  26184-3  78751-3 0  9994
2 52162  97.2539 167.9525 0005891 198.5741 161.5328 16.09327893220295
STARLINK-3767           
1 52376U 22045AX  26063.16670139  .01295132  88735-3  26077-2 0  9997
2 52376  53.2122 200.5377 0000440 107.6596 112.1911 15.99268054  5949
NUSAT-28 (ALICE LEE)    
1 52747U 22057R   26063.20265851  .00586401  14683-3  14142-2 0  9990
2 52747  97.4992 212.4882 0007076 288.1628  71.8878 15.96381772211179
STARLINK-6284           
1 56403U 23061AF  26062.98107343  .04547832  92034-5  73897-3 0  9994
2 56403  42.9901 172.2404 0005264 309.8740  50.1687 16.32520729156548
STARLINK-6201           
1 56486U 23064AQ  26063.16670139  .01263226  78580-3  31904-2 0  9996
2 56486  69.9961 129.4005 0003696 274.3933 103.9079 15.95533639  5842
SHIYAN-25 (SY-25)       
1 57047U 23087A   26063.21667470  .00129849  88210-5  24048-3 0  9991
2 57047  96.7160 124.3005 0012154 244.9075 115.0945 16.01043860158012
STARLINK-30210          
1 57292U 23096C   26062.96554120  .00995072  51098-3  15085-2 0  9992
2 57292  42.9633 171.4859 0025114   2.2845 357.8144 16.03089191147599
STARLINK-30232          
1 57303U 23096P   26063.23891312  .01123479  68521-3  16051-2 0  9991
2 57303  42.9707 169.3408 0023926   5.2845 354.8283 16.04158690147629
QIANKUN-1               
1 57422U 23103B   26062.97920875  .00000717  16831-5  14603-5 0  9990
2 57422  96.1950 114.8717 0028302 171.4148 188.7628 16.07819064150392
OBJECT B                
1 57425U 23104B   26063.21350508  .00348986  48917-4  99052-3 0  9993
2 57425  97.2682 151.6006 0002238 316.3064  43.8033 15.93352274147202
